{
"type": "FeatureCollection",
"name": "Temples of The Church of Jesus Christ of Latter-day Saints",
"features": [
{ "type": "Feature", "properties": { "Name": "Aba Nigeria Temple", "Phone": "&nbsp; (+234) 80-3903-4810" }, "geometry": { "type": "Point", "coordinates": [ 7.356719, 5.147644, 0.0 ] } },
{ "type": "Feature", "properties": { "Name": "Abidjan Ivory Coast Temple", "Phone": "&nbsp; (+225) 25-22-01-80-10" }, "geometry": { "type": "Point", "coordinates": [ -3.976865, 5.362307, 0.0 ] } },
{ "type": "Feature", "properties": { "Name": "Abuja Nigeria Temple", "Phone": null }, "geometry": { "type": "Point", "coordinates": [ 7.4641473, 9.0327285, 0.0 ] } },
{ "type": "Feature", "properties": { "Name": "Accra Ghana Temple", "Phone": "&nbsp; (+233) 302-650-123" }, "geometry": { "type": "Point", "coordinates": [ -0.193706, 5.56749, 0.0 ] } },
{ "type": "Feature", "properties": { "Name": "Adelaide Australia Temple", "Phone": "&nbsp; (+61) 8-8363-8000" }, "geometry": { "type": "Point", "coordinates": [ 138.635002, -34.892473, 0.0 ] } },
{ "type": "Feature", "properties": { "Name": "Alabang Philippines Temple", "Phone": null }, "geometry": { "type": "Point", "coordinates": [ 121.037838, 14.412913, 0.0 ] } },
{ "type": "Feature", "properties": { "Name": "Albuquerque New Mexico Temple", "Phone": "&nbsp; (+1) 505-822-5110" }, "geometry": { "type": "Point", "coordinates": [ -106.525301, 35.167684, 0.0 ] } },
{ "type": "Feature", "properties": { "Name": "Anchorage Alaska Temple", "Phone": "&nbsp; (+1) 907-348-7890" }, "geometry": { "type": "Point", "coordinates": [ -149.840512, 61.101627, 0.0 ] } },
{ "type": "Feature", "properties": { "Name": "Antananarivo Madagascar Temple", "Phone": null }, "geometry": { "type": "Point", "coordinates": [ 47.4784198, -18.8544545, 0.0 ] } },
{ "type": "Feature", "properties": { "Name": "Antofagasta Chile Temple", "Phone": "&nbsp; (+56) 55-288-9420" }, "geometry": { "type": "Point", "coordinates": [ -70.394525, -23.571891, 0.0 ] } },
{ "type": "Feature", "properties": { "Name": "Apia Samoa Temple", "Phone": "&nbsp; (+685) 64-230" }, "geometry": { "type": "Point", "coordinates": [ -171.783034, -13.838064, 0.0 ] } },
{ "type": "Feature", "properties": { "Name": "Arequipa Peru Temple", "Phone": "&nbsp; (+51) 54-640-300" }, "geometry": { "type": "Point", "coordinates": [ -71.538477, -16.375203, 0.0 ] } },
{ "type": "Feature", "properties": { "Name": "Asunción Paraguay Temple", "Phone": "&nbsp; (+595) 21-216-9200" }, "geometry": { "type": "Point", "coordinates": [ -57.602869, -25.287916, 0.0 ] } },
{ "type": "Feature", "properties": { "Name": "Atlanta Georgia Temple", "Phone": "&nbsp; (+1) 770-393-3698" }, "geometry": { "type": "Point", "coordinates": [ -84.362394, 33.931896, 0.0 ] } },
{ "type": "Feature", "properties": { "Name": "Auckland New Zealand Temple", "Phone": "&nbsp; (+64) 09-610-7070" }, "geometry": { "type": "Point", "coordinates": [ 174.890191, -36.993227, 0.0 ] } },
{ "type": "Feature", "properties": { "Name": "Austin Texas Temple", "Phone": null }, "geometry": { "type": "Point", "coordinates": [ -97.79687, 30.5168145, 0.0 ] } },
{ "type": "Feature", "properties": { "Name": "Bacolod Philippines Temple", "Phone": null }, "geometry": { "type": "Point", "coordinates": [ 122.989455, 10.696648, 0.0 ] } },
{ "type": "Feature", "properties": { "Name": "Bahía Blanca Argentina Temple", "Phone": null }, "geometry": { "type": "Point", "coordinates": [ -62.235937, -38.69117, 0.0 ] } },
{ "type": "Feature", "properties": { "Name": "Bakersfield California Temple", "Phone": null }, "geometry": { "type": "Point", "coordinates": [ -119.138634, 35.3550233, 0.0 ] } },
{ "type": "Feature", "properties": { "Name": "Bangkok Thailand Temple", "Phone": "&nbsp; (+66) 02-021-7200" }, "geometry": { "type": "Point", "coordinates": [ 100.562527, 13.749491, 0.0 ] } },
{ "type": "Feature", "properties": { "Name": "Barcelona Spain Temple", "Phone": null }, "geometry": { "type": "Point", "coordinates": [ 2.0693124, 41.4874655, 0.0 ] } },
{ "type": "Feature", "properties": { "Name": "Barranquilla Colombia Temple", "Phone": "&nbsp; (+57) 605-310-0200" }, "geometry": { "type": "Point", "coordinates": [ -74.86261, 11.016798, 0.0 ] } },
{ "type": "Feature", "properties": { "Name": "Baton Rouge Louisiana Temple", "Phone": "&nbsp; (+1) 225-769-1197" }, "geometry": { "type": "Point", "coordinates": [ -91.108385, 30.362664, 0.0 ] } },
{ "type": "Feature", "properties": { "Name": "Beira Mozambique Temple", "Phone": null }, "geometry": { "type": "Point", "coordinates": [ 34.8552423, -19.8459213, 0.0 ] } },
{ "type": "Feature", "properties": { "Name": "Belém Brazil Temple", "Phone": "&nbsp; (+55) 91-3323-0797" }, "geometry": { "type": "Point", "coordinates": [ -48.459894, -1.387242, 0.0 ] } },
{ "type": "Feature", "properties": { "Name": "Belo Horizonte Brazil Temple", "Phone": null }, "geometry": { "type": "Point", "coordinates": [ -43.978641, -19.8792049, 0.0 ] } },
{ "type": "Feature", "properties": { "Name": "Bengaluru India Temple", "Phone": null }, "geometry": { "type": "Point", "coordinates": [ 77.704714, 12.992096, 0.0 ] } },
{ "type": "Feature", "properties": { "Name": "Benin City Nigeria Temple", "Phone": null }, "geometry": { "type": "Point", "coordinates": [ 5.6251645, 6.3145652, 0.0 ] } },
{ "type": "Feature", "properties": { "Name": "Bentonville Arkansas Temple", "Phone": "&nbsp; (+1) 479-319-2616" }, "geometry": { "type": "Point", "coordinates": [ -94.183255, 36.3850058, 0.0 ] } },
{ "type": "Feature", "properties": { "Name": "Bern Switzerland Temple", "Phone": "&nbsp; (+41) 31-915-5252" }, "geometry": { "type": "Point", "coordinates": [ 7.458244, 47.002192, 0.0 ] } },
{ "type": "Feature", "properties": { "Name": "Billings Montana Temple", "Phone": "&nbsp; (+1) 406-655-0607" }, "geometry": { "type": "Point", "coordinates": [ -108.63939, 45.800505, 0.0 ] } },
{ "type": "Feature", "properties": { "Name": "Birmingham Alabama Temple", "Phone": "&nbsp; (+1) 205-631-3444" }, "geometry": { "type": "Point", "coordinates": [ -86.821236, 33.674623, 0.0 ] } },
{ "type": "Feature", "properties": { "Name": "Birmingham England Temple", "Phone": null }, "geometry": { "type": "Point", "coordinates": [ -1.8123859, 52.5355108, 0.0 ] } },
{ "type": "Feature", "properties": { "Name": "Bismarck North Dakota Temple", "Phone": "&nbsp; (+1) 701-258-9590" }, "geometry": { "type": "Point", "coordinates": [ -100.813979, 46.838889, 0.0 ] } },
{ "type": "Feature", "properties": { "Name": "Bogotá Colombia Temple", "Phone": "&nbsp; (+57) 601-307-4959" }, "geometry": { "type": "Point", "coordinates": [ -74.056247, 4.707801, 0.0 ] } },
{ "type": "Feature", "properties": { "Name": "Boise Idaho Temple", "Phone": "&nbsp; (+1) 208-322-4422" }, "geometry": { "type": "Point", "coordinates": [ -116.275034, 43.593523, 0.0 ] } },
{ "type": "Feature", "properties": { "Name": "Boston Massachusetts Temple", "Phone": "&nbsp; (+1) 617-993-9993" }, "geometry": { "type": "Point", "coordinates": [ -71.188091, 42.412002, 0.0 ] } },
{ "type": "Feature", "properties": { "Name": "Bountiful Utah Temple", "Phone": "&nbsp; (+1) 801-296-2100" }, "geometry": { "type": "Point", "coordinates": [ -111.846812, 40.882853, 0.0 ] } },
{ "type": "Feature", "properties": { "Name": "Brasília Brazil Temple", "Phone": "&nbsp; (+55) 61-3799-3090" }, "geometry": { "type": "Point", "coordinates": [ -47.880945, -15.747835, 0.0 ] } },
{ "type": "Feature", "properties": { "Name": "Brazzaville Republic of the Congo Temple", "Phone": null }, "geometry": { "type": "Point", "coordinates": [ 15.2584706, -4.282766, 0.0 ] } },
{ "type": "Feature", "properties": { "Name": "Brigham City Utah Temple", "Phone": "&nbsp; (+1) 435-695-2170" }, "geometry": { "type": "Point", "coordinates": [ -112.016592, 41.505376, 0.0 ] } },
{ "type": "Feature", "properties": { "Name": "Brisbane Australia South Temple", "Phone": null }, "geometry": { "type": "Point", "coordinates": [ 153.041731, -27.6469315, 0.0 ] } },
{ "type": "Feature", "properties": { "Name": "Brisbane Australia Temple", "Phone": "&nbsp; (+61) 7-3240-3600" }, "geometry": { "type": "Point", "coordinates": [ 153.033841, -27.480886, 0.0 ] } },
{ "type": "Feature", "properties": { "Name": "Brussels Belgium Temple", "Phone": null }, "geometry": { "type": "Point", "coordinates": [ 4.3671013, 50.8417176, 0.0 ] } },
{ "type": "Feature", "properties": { "Name": "Budapest Hungary Temple", "Phone": null }, "geometry": { "type": "Point", "coordinates": [ 19.0063489, 47.5702454, 0.0 ] } },
{ "type": "Feature", "properties": { "Name": "Buenos Aires Argentina Temple", "Phone": "&nbsp; (+54) 11-4693-9700" }, "geometry": { "type": "Point", "coordinates": [ -58.518225, -34.729286, 0.0 ] } },
{ "type": "Feature", "properties": { "Name": "Buenos Aires City Center Argentina Temple", "Phone": null }, "geometry": { "type": "Point", "coordinates": [ -58.37306, -34.5991709, 0.0 ] } },
{ "type": "Feature", "properties": { "Name": "Burley Idaho Temple", "Phone": null }, "geometry": { "type": "Point", "coordinates": [ -113.764841, 42.5265911, 0.0 ] } },
{ "type": "Feature", "properties": { "Name": "Busan Korea Temple", "Phone": null }, "geometry": { "type": "Point", "coordinates": [ 129.0842721, 35.1406835, 0.0 ] } },
{ "type": "Feature", "properties": { "Name": "Cagayan de Oro Philippines Temple", "Phone": null }, "geometry": { "type": "Point", "coordinates": [ 124.6598511, 8.4790893, 0.0 ] } },
{ "type": "Feature", "properties": { "Name": "Calabar Nigeria Temple", "Phone": null }, "geometry": { "type": "Point", "coordinates": [ 8.3396931, 4.9799404, 0.0 ] } },
{ "type": "Feature", "properties": { "Name": "Caldwell Idaho Temple", "Phone": null }, "geometry": { "type": "Point", "coordinates": [ -116.662981, 43.5899415, 0.0 ] } },
{ "type": "Feature", "properties": { "Name": "Calgary Alberta Temple", "Phone": "&nbsp; (+1) 403-241-4250" }, "geometry": { "type": "Point", "coordinates": [ -114.2333, 51.140861, 0.0 ] } },
{ "type": "Feature", "properties": { "Name": "Cali Colombia Temple", "Phone": null }, "geometry": { "type": "Point", "coordinates": [ -76.521499, 3.4869832, 0.0 ] } },
{ "type": "Feature", "properties": { "Name": "Campinas Brazil Temple", "Phone": "&nbsp; (+55) 19-2102-5800" }, "geometry": { "type": "Point", "coordinates": [ -47.001133, -22.896534, 0.0 ] } },
{ "type": "Feature", "properties": { "Name": "Campo Grande Brazil Temple", "Phone": null }, "geometry": { "type": "Point", "coordinates": [ -54.62679, -20.4762332, 0.0 ] } },
{ "type": "Feature", "properties": { "Name": "Cancún Mexico Temple", "Phone": null }, "geometry": { "type": "Point", "coordinates": [ -86.8515089, 21.1618986, 0.0 ] } },
{ "type": "Feature", "properties": { "Name": "Cape Coast Ghana Temple", "Phone": null }, "geometry": { "type": "Point", "coordinates": [ -1.2689668, 5.1231379, 0.0 ] } },
{ "type": "Feature", "properties": { "Name": "Cape Town South Africa Temple", "Phone": null }, "geometry": { "type": "Point", "coordinates": [ 18.4797749, -33.9411439, 0.0 ] } },
{ "type": "Feature", "properties": { "Name": "Caracas Venezuela Temple", "Phone": "&nbsp; (+58) 212-985-3051" }, "geometry": { "type": "Point", "coordinates": [ -66.837293, 10.470849, 0.0 ] } },
{ "type": "Feature", "properties": { "Name": "Cardston Alberta Temple", "Phone": "&nbsp; (+1) 403-653-3552" }, "geometry": { "type": "Point", "coordinates": [ -113.309394, 49.19835, 0.0 ] } },
{ "type": "Feature", "properties": { "Name": "Casper Wyoming Temple", "Phone": "&nbsp; (+1) 307-439-1530" }, "geometry": { "type": "Point", "coordinates": [ -106.361814, 42.8090893, 0.0 ] } },
{ "type": "Feature", "properties": { "Name": "Cebu City Philippines Temple", "Phone": "&nbsp; (+63) 32-230-1207" }, "geometry": { "type": "Point", "coordinates": [ 123.898299, 10.327659, 0.0 ] } },
{ "type": "Feature", "properties": { "Name": "Cedar City Utah Temple", "Phone": "&nbsp; (+1) 435-572-4150" }, "geometry": { "type": "Point", "coordinates": [ -113.096271, 37.671734, 0.0 ] } },
{ "type": "Feature", "properties": { "Name": "Charlotte North Carolina Temple", "Phone": null }, "geometry": { "type": "Point", "coordinates": [ -80.7656673, 35.0075231, 0.0 ] } },
{ "type": "Feature", "properties": { "Name": "Chicago Illinois Temple", "Phone": "&nbsp; (+1) 847-299-6500" }, "geometry": { "type": "Point", "coordinates": [ -87.859501, 42.086829, 0.0 ] } },
{ "type": "Feature", "properties": { "Name": "Chiclayo Peru Temple", "Phone": null }, "geometry": { "type": "Point", "coordinates": [ -79.855442, -6.7699474, 0.0 ] } },
{ "type": "Feature", "properties": { "Name": "Chihuahua Mexico Temple", "Phone": null }, "geometry": { "type": "Point", "coordinates": [ -106.14986, 28.6437302, 0.0 ] } },
{ "type": "Feature", "properties": { "Name": "Chorrillos Peru Temple", "Phone": null }, "geometry": { "type": "Point", "coordinates": [ -77.007694, -12.1844029, 0.0 ] } },
{ "type": "Feature", "properties": { "Name": "Cincinnati Ohio Temple", "Phone": null }, "geometry": { "type": "Point", "coordinates": [ -84.3168764, 39.3272503, 0.0 ] } },
{ "type": "Feature", "properties": { "Name": "Ciudad Juárez Mexico Temple", "Phone": "&nbsp; (+52) 656-611-5146" }, "geometry": { "type": "Point", "coordinates": [ -106.463209, 31.736269, 0.0 ] } },
{ "type": "Feature", "properties": { "Name": "Cleveland Ohio Temple", "Phone": null }, "geometry": { "type": "Point", "coordinates": [ -81.636826, 41.3998691, 0.0 ] } },
{ "type": "Feature", "properties": { "Name": "Cobán Guatemala Temple", "Phone": "&nbsp; (+502) 7963-6150" }, "geometry": { "type": "Point", "coordinates": [ -90.365166, 15.459077, 0.0 ] } },
{ "type": "Feature", "properties": { "Name": "Cochabamba Bolivia Temple", "Phone": "&nbsp; (+591) 4-429-3161" }, "geometry": { "type": "Point", "coordinates": [ -66.147644, -17.363644, 0.0 ] } },
{ "type": "Feature", "properties": { "Name": "Cody Wyoming Temple", "Phone": null }, "geometry": { "type": "Point", "coordinates": [ -109.081796, 44.5114835, 0.0 ] } },
{ "type": "Feature", "properties": { "Name": "Coeur d'Alene Idaho Temple", "Phone": null }, "geometry": { "type": "Point", "coordinates": [ -116.846255, 47.7287181, 0.0 ] } },
{ "type": "Feature", "properties": { "Name": "Colonia Juárez Chihuahua Mexico Temple", "Phone": "&nbsp; (+52) 636-110-9427" }, "geometry": { "type": "Point", "coordinates": [ -108.082038, 30.305251, 0.0 ] } },
{ "type": "Feature", "properties": { "Name": "Colorado Springs Colorado Temple", "Phone": null }, "geometry": { "type": "Point", "coordinates": [ -104.784452, 39.0183057, 0.0 ] } },
{ "type": "Feature", "properties": { "Name": "Columbia River Washington Temple", "Phone": "&nbsp; (+1) 509-628-0990" }, "geometry": { "type": "Point", "coordinates": [ -119.274893, 46.226733, 0.0 ] } },
{ "type": "Feature", "properties": { "Name": "Columbia South Carolina Temple", "Phone": "&nbsp; (+1) 803-647-9472" }, "geometry": { "type": "Point", "coordinates": [ -80.893981, 33.959638, 0.0 ] } },
{ "type": "Feature", "properties": { "Name": "Columbus Ohio Temple", "Phone": "&nbsp; (+1) 614-351-5001" }, "geometry": { "type": "Point", "coordinates": [ -83.113214, 39.994089, 0.0 ] } },
{ "type": "Feature", "properties": { "Name": "Concepción Chile Temple", "Phone": "&nbsp; (+56) 41-383-4700" }, "geometry": { "type": "Point", "coordinates": [ -73.049966, -36.851499, 0.0 ] } },
{ "type": "Feature", "properties": { "Name": "Copenhagen Denmark Temple", "Phone": "&nbsp; (+45) 38-18-1818" }, "geometry": { "type": "Point", "coordinates": [ 12.53392, 55.692677, 0.0 ] } },
{ "type": "Feature", "properties": { "Name": "Córdoba Argentina Temple", "Phone": "&nbsp; (+54) 354-340-6200" }, "geometry": { "type": "Point", "coordinates": [ -64.245809, -31.358873, 0.0 ] } },
{ "type": "Feature", "properties": { "Name": "Cuernavaca Mexico Temple", "Phone": null }, "geometry": { "type": "Point", "coordinates": [ -99.226499, 18.9347381, 0.0 ] } },
{ "type": "Feature", "properties": { "Name": "Culiacán Mexico Temple", "Phone": null }, "geometry": { "type": "Point", "coordinates": [ -107.44189, 24.791849, 0.0 ] } },
{ "type": "Feature", "properties": { "Name": "Curitiba Brazil Temple", "Phone": "&nbsp; (+55) 41-3204-6650" }, "geometry": { "type": "Point", "coordinates": [ -49.342138, -25.441304, 0.0 ] } },
{ "type": "Feature", "properties": { "Name": "Cusco Peru Temple", "Phone": null }, "geometry": { "type": "Point", "coordinates": [ -71.984943, -13.515931, 0.0 ] } },
{ "type": "Feature", "properties": { "Name": "Dallas Texas Temple", "Phone": "&nbsp; (+1) 972-991-1273" }, "geometry": { "type": "Point", "coordinates": [ -96.796525, 32.914288, 0.0 ] } },
{ "type": "Feature", "properties": { "Name": "Davao Philippines Temple", "Phone": null }, "geometry": { "type": "Point", "coordinates": [ 125.579755, 7.088597, 0.0 ] } },
{ "type": "Feature", "properties": { "Name": "Denver Colorado Temple", "Phone": "&nbsp; (+1) 303-730-0220" }, "geometry": { "type": "Point", "coordinates": [ -104.965782, 39.568698, 0.0 ] } },
{ "type": "Feature", "properties": { "Name": "Des Moines Iowa Temple", "Phone": null }, "geometry": { "type": "Point", "coordinates": [ -93.742485, 41.6711772, 0.0 ] } },
{ "type": "Feature", "properties": { "Name": "Deseret Peak Utah Temple", "Phone": "&nbsp; (+1) 435-728-0130" }, "geometry": { "type": "Point", "coordinates": [ -112.31397, 40.5726617, 0.0 ] } },
{ "type": "Feature", "properties": { "Name": "Detroit Michigan Temple", "Phone": "&nbsp; (+1) 248-593-0690" }, "geometry": { "type": "Point", "coordinates": [ -83.229983, 42.566266, 0.0 ] } },
{ "type": "Feature", "properties": { "Name": "Draper Utah Temple", "Phone": "&nbsp; (+1) 801-576-4240" }, "geometry": { "type": "Point", "coordinates": [ -111.840748, 40.495893, 0.0 ] } },
{ "type": "Feature", "properties": { "Name": "Dubai United Arab Emirates Temple", "Phone": null }, "geometry": { "type": "Point", "coordinates": [ 55.150672, 24.960831, 0.0 ] } },
{ "type": "Feature", "properties": { "Name": "Dublin Ireland Temple", "Phone": null }, "geometry": { "type": "Point", "coordinates": [ -6.3686586, 53.3188609, 0.0 ] } },
{ "type": "Feature", "properties": { "Name": "Durban South Africa Temple", "Phone": "&nbsp; (+27) 31-140-0240" }, "geometry": { "type": "Point", "coordinates": [ 31.073671, -29.708455, 0.0 ] } },
{ "type": "Feature", "properties": { "Name": "Edinburgh Scotland Temple", "Phone": null }, "geometry": { "type": "Point", "coordinates": [ -3.1719127, 55.970593, 0.0 ] } },
{ "type": "Feature", "properties": { "Name": "Edmonton Alberta Temple", "Phone": "&nbsp; (+1) 780-434-7436" }, "geometry": { "type": "Point", "coordinates": [ -113.570538, 53.489593, 0.0 ] } },
{ "type": "Feature", "properties": { "Name": "Eket Nigeria Temple", "Phone": null }, "geometry": { "type": "Point", "coordinates": [ 7.9682066, 4.6580521, 0.0 ] } },
{ "type": "Feature", "properties": { "Name": "El Paso Texas Temple", "Phone": null }, "geometry": { "type": "Point", "coordinates": [ -106.44249, 31.7775619, 0.0 ] } },
{ "type": "Feature", "properties": { "Name": "Elko Nevada Temple", "Phone": null }, "geometry": { "type": "Point", "coordinates": [ -115.750084, 40.8524952, 0.0 ] } },
{ "type": "Feature", "properties": { "Name": "Endowment House", "Phone": null }, "geometry": { "type": "Point", "coordinates": [ -111.893602, 40.7711136, 0.0 ] } },
{ "type": "Feature", "properties": { "Name": "Ephraim Utah Temple", "Phone": null }, "geometry": { "type": "Point", "coordinates": [ -111.576, 39.3635399, 0.0 ] } },
{ "type": "Feature", "properties": { "Name": "Fairbanks Alaska Temple", "Phone": null }, "geometry": { "type": "Point", "coordinates": [ -147.85293, 64.8483593, 0.0 ] } },
{ "type": "Feature", "properties": { "Name": "Fairview Texas Temple", "Phone": null }, "geometry": { "type": "Point", "coordinates": [ -96.6310637, 33.1303179, 0.0 ] } },
{ "type": "Feature", "properties": { "Name": "Farmington New Mexico Temple", "Phone": null }, "geometry": { "type": "Point", "coordinates": [ -108.1654604, 36.7690974, 0.0 ] } },
{ "type": "Feature", "properties": { "Name": "Feather River California Temple", "Phone": "&nbsp; (+1) 530-491-2710" }, "geometry": { "type": "Point", "coordinates": [ -121.639963, 39.146344, 0.0 ] } },
{ "type": "Feature", "properties": { "Name": "Flagstaff Arizona Temple", "Phone": null }, "geometry": { "type": "Point", "coordinates": [ -111.608339, 35.1941313, 0.0 ] } },
{ "type": "Feature", "properties": { "Name": "Florianópolis Brazil Temple", "Phone": null }, "geometry": { "type": "Point", "coordinates": [ -48.61723, -27.5921925, 0.0 ] } },
{ "type": "Feature", "properties": { "Name": "Fort Bend Texas Temple", "Phone": null }, "geometry": { "type": "Point", "coordinates": [ -95.540308, 29.528908, 0.0 ] } },
{ "type": "Feature", "properties": { "Name": "Fort Collins Colorado Temple", "Phone": "&nbsp; (+1) 970-797-4630" }, "geometry": { "type": "Point", "coordinates": [ -105.038685, 40.494269, 0.0 ] } },
{ "type": "Feature", "properties": { "Name": "Fort Lauderdale Florida Temple", "Phone": "&nbsp; (+1) 954-382-8390" }, "geometry": { "type": "Point", "coordinates": [ -80.355727, 26.070899, 0.0 ] } },
{ "type": "Feature", "properties": { "Name": "Fort Worth Texas Temple", "Phone": null }, "geometry": { "type": "Point", "coordinates": [ -97.3575068, 32.5168423, 0.0 ] } },
{ "type": "Feature", "properties": { "Name": "Fortaleza Brazil Temple", "Phone": "&nbsp; (+55) 85-3533-7150" }, "geometry": { "type": "Point", "coordinates": [ -38.46101, -3.747847, 0.0 ] } },
{ "type": "Feature", "properties": { "Name": "Frankfurt Germany Temple", "Phone": "&nbsp; (+49) 6172-59000" }, "geometry": { "type": "Point", "coordinates": [ 8.641316, 50.258246, 0.0 ] } },
{ "type": "Feature", "properties": { "Name": "Freetown Sierra Leone Temple", "Phone": null }, "geometry": { "type": "Point", "coordinates": [ -13.1387593, 8.3876324, 0.0 ] } },
{ "type": "Feature", "properties": { "Name": "Freiberg Germany Temple", "Phone": "&nbsp; (+49) 3731-35960" }, "geometry": { "type": "Point", "coordinates": [ 13.322541, 50.922315, 0.0 ] } },
{ "type": "Feature", "properties": { "Name": "Fresno California Temple", "Phone": "&nbsp; (+1) 559-437-9451" }, "geometry": { "type": "Point", "coordinates": [ -119.852911, 36.828257, 0.0 ] } },
{ "type": "Feature", "properties": { "Name": "Fukuoka Japan Temple", "Phone": "&nbsp; (+81) 92-525-8255" }, "geometry": { "type": "Point", "coordinates": [ 130.391704, 33.572618, 0.0 ] } },
{ "type": "Feature", "properties": { "Name": "Gilbert Arizona Temple", "Phone": "&nbsp; (+1) 480-822-5000" }, "geometry": { "type": "Point", "coordinates": [ -111.737365, 33.291378, 0.0 ] } },
{ "type": "Feature", "properties": { "Name": "Goiânia Brazil Temple", "Phone": null }, "geometry": { "type": "Point", "coordinates": [ -49.2533495, -16.6901149, 0.0 ] } },
{ "type": "Feature", "properties": { "Name": "Grand Junction Colorado Temple", "Phone": null }, "geometry": { "type": "Point", "coordinates": [ -108.551144, 39.101442, 0.0 ] } },
{ "type": "Feature", "properties": { "Name": "Grand Rapids Michigan Temple", "Phone": null }, "geometry": { "type": "Point", "coordinates": [ -85.5582121, 42.9196111, 0.0 ] } },
{ "type": "Feature", "properties": { "Name": "Greenville South Carolina Temple", "Phone": null }, "geometry": { "type": "Point", "coordinates": [ -82.2969359, 34.833023, 0.0 ] } },
{ "type": "Feature", "properties": { "Name": "Guadalajara Mexico Temple", "Phone": "&nbsp; (+52) 33-3125-1283" }, "geometry": { "type": "Point", "coordinates": [ -103.42307, 20.66155, 0.0 ] } },
{ "type": "Feature", "properties": { "Name": "Guatemala City Guatemala Temple", "Phone": "&nbsp; (+502) 2329-8300" }, "geometry": { "type": "Point", "coordinates": [ -90.485576, 14.583303, 0.0 ] } },
{ "type": "Feature", "properties": { "Name": "Guayaquil Ecuador Temple", "Phone": "&nbsp; (+593) 4-371-8100" }, "geometry": { "type": "Point", "coordinates": [ -79.904877, -2.156246, 0.0 ] } },
{ "type": "Feature", "properties": { "Name": "Halifax Nova Scotia Temple", "Phone": "&nbsp; (+1) 902-434-6920" }, "geometry": { "type": "Point", "coordinates": [ -63.489038, 44.66999, 0.0 ] } },
{ "type": "Feature", "properties": { "Name": "Hamburg Germany Temple", "Phone": null }, "geometry": { "type": "Point", "coordinates": [ 10.0323902, 53.5404092, 0.0 ] } },
{ "type": "Feature", "properties": { "Name": "Hamilton New Zealand Temple", "Phone": "&nbsp; (+64) 7-846-2750" }, "geometry": { "type": "Point", "coordinates": [ 175.224885, -37.826397, 0.0 ] } },
{ "type": "Feature", "properties": { "Name": "Harare Zimbabwe Temple", "Phone": null }, "geometry": { "type": "Point", "coordinates": [ 31.082426, -17.804085, 0.0 ] } },
{ "type": "Feature", "properties": { "Name": "Harrisburg Pennsylvania Temple", "Phone": null }, "geometry": { "type": "Point", "coordinates": [ -76.8029357, 40.2839631, 0.0 ] } },
{ "type": "Feature", "properties": { "Name": "Hartford Connecticut Temple", "Phone": "&nbsp; (+1) 860-773-7200" }, "geometry": { "type": "Point", "coordinates": [ -72.844528, 41.737809, 0.0 ] } },
{ "type": "Feature", "properties": { "Name": "Heber Valley Utah Temple", "Phone": null }, "geometry": { "type": "Point", "coordinates": [ -111.389452, 40.5066327, 0.0 ] } },
{ "type": "Feature", "properties": { "Name": "Helena Montana Temple", "Phone": "&nbsp; (+1) 406-389-4520" }, "geometry": { "type": "Point", "coordinates": [ -112.01924, 46.6337249, 0.0 ] } },
{ "type": "Feature", "properties": { "Name": "Helsinki Finland Temple", "Phone": "&nbsp; (+358) 9-849-37110" }, "geometry": { "type": "Point", "coordinates": [ 24.781785, 60.225193, 0.0 ] } },
{ "type": "Feature", "properties": { "Name": "Hermosillo Sonora Mexico Temple", "Phone": "&nbsp; (+52) 662-210-5660" }, "geometry": { "type": "Point", "coordinates": [ -110.94687, 29.102548, 0.0 ] } },
{ "type": "Feature", "properties": { "Name": "Hong Kong China Temple", "Phone": "&nbsp; (+852) 2910-9300" }, "geometry": { "type": "Point", "coordinates": [ 114.177336, 22.34045, 0.0 ] } },
{ "type": "Feature", "properties": { "Name": "Honolulu Hawaii Temple", "Phone": null }, "geometry": { "type": "Point", "coordinates": [ -157.85466, 21.3145037, 0.0 ] } },
{ "type": "Feature", "properties": { "Name": "Houston Texas Temple", "Phone": "&nbsp; (+1) 281-376-6804" }, "geometry": { "type": "Point", "coordinates": [ -95.533038, 29.999729, 0.0 ] } },
{ "type": "Feature", "properties": { "Name": "Huancayo Peru Temple", "Phone": null }, "geometry": { "type": "Point", "coordinates": [ -75.22579, -12.0531264, 0.0 ] } },
{ "type": "Feature", "properties": { "Name": "Huehuetenango Guatemala Temple", "Phone": null }, "geometry": { "type": "Point", "coordinates": [ -91.48993, 15.3261849, 0.0 ] } },
{ "type": "Feature", "properties": { "Name": "Huntsville Alabama Temple", "Phone": null }, "geometry": { "type": "Point", "coordinates": [ -86.782548, 34.7276368, 0.0 ] } },
{ "type": "Feature", "properties": { "Name": "Idaho Falls Idaho Temple", "Phone": "&nbsp; (+1) 208-522-7669" }, "geometry": { "type": "Point", "coordinates": [ -112.0415, 43.499819, 0.0 ] } },
{ "type": "Feature", "properties": { "Name": "Iloilo Philippines Temple", "Phone": null }, "geometry": { "type": "Point", "coordinates": [ 122.548406, 10.7531449, 0.0 ] } },
{ "type": "Feature", "properties": { "Name": "Indianapolis Indiana Temple", "Phone": "&nbsp; (+1) 317-993-3800" }, "geometry": { "type": "Point", "coordinates": [ -86.165741, 39.955588, 0.0 ] } },
{ "type": "Feature", "properties": { "Name": "Iquitos Peru Temple", "Phone": null }, "geometry": { "type": "Point", "coordinates": [ -73.26756, -3.7608171, 0.0 ] } },
{ "type": "Feature", "properties": { "Name": "Jacksonville Florida Temple", "Phone": null }, "geometry": { "type": "Point", "coordinates": [ -81.6235071, 30.16175, 0.0 ] } },
{ "type": "Feature", "properties": { "Name": "Jakarta Indonesia Temple", "Phone": null }, "geometry": { "type": "Point", "coordinates": [ 106.83779, -6.2410559, 0.0 ] } },
{ "type": "Feature", "properties": { "Name": "João Pessoa Brazil Temple", "Phone": null }, "geometry": { "type": "Point", "coordinates": [ -34.829102, -7.1242103, 0.0 ] } },
{ "type": "Feature", "properties": { "Name": "Johannesburg South Africa Temple", "Phone": "&nbsp; (+27) 11-645-1540" }, "geometry": { "type": "Point", "coordinates": [ 28.039195, -26.178051, 0.0 ] } },
{ "type": "Feature", "properties": { "Name": "Jordan River Utah Temple", "Phone": "&nbsp; (+1) 801-254-3003" }, "geometry": { "type": "Point", "coordinates": [ -111.931417, 40.566354, 0.0 ] } },
{ "type": "Feature", "properties": { "Name": "Juchitán de Zaragoza Mexico Temple", "Phone": null }, "geometry": { "type": "Point", "coordinates": [ -95.0252391, 16.4462138, 0.0 ] } },
{ "type": "Feature", "properties": { "Name": "Kahului Hawaii Temple", "Phone": null }, "geometry": { "type": "Point", "coordinates": [ -156.49336, 20.8673542, 0.0 ] } },
{ "type": "Feature", "properties": { "Name": "Kampala Uganda Temple", "Phone": null }, "geometry": { "type": "Point", "coordinates": [ 32.5728795, 0.2935698, 0.0 ] } },
{ "type": "Feature", "properties": { "Name": "Kananga Democratic Republic of the Congo Temple", "Phone": null }, "geometry": { "type": "Point", "coordinates": [ 22.4296871, -5.8951076, 0.0 ] } },
{ "type": "Feature", "properties": { "Name": "Kansas City Missouri Temple", "Phone": "&nbsp; (+1) 816-413-1430" }, "geometry": { "type": "Point", "coordinates": [ -94.501331, 39.220473, 0.0 ] } },
{ "type": "Feature", "properties": { "Name": "Kaohsiung Taiwan Temple", "Phone": null }, "geometry": { "type": "Point", "coordinates": [ 120.3455124, 22.6507433, 0.0 ] } },
{ "type": "Feature", "properties": { "Name": "Kinshasa Democratic Republic of the Congo Temple", "Phone": "&nbsp; (+243) 815-590-060" }, "geometry": { "type": "Point", "coordinates": [ 15.27371, -4.327478, 0.0 ] } },
{ "type": "Feature", "properties": { "Name": "Kirtland Temple", "Phone": null }, "geometry": { "type": "Point", "coordinates": [ -81.362159, 41.625292, 0.0 ] } },
{ "type": "Feature", "properties": { "Name": "Knoxville Tennessee Temple", "Phone": null }, "geometry": { "type": "Point", "coordinates": [ -84.2182371, 35.8645655, 0.0 ] } },
{ "type": "Feature", "properties": { "Name": "Kona Hawaii Temple", "Phone": "&nbsp; (+1) 808-331-8504" }, "geometry": { "type": "Point", "coordinates": [ -155.985524, 19.641614, 0.0 ] } },
{ "type": "Feature", "properties": { "Name": "Kumasi Ghana Temple", "Phone": null }, "geometry": { "type": "Point", "coordinates": [ -1.6411405, 6.7023578, 0.0 ] } },
{ "type": "Feature", "properties": { "Name": "Kyiv Ukraine Temple", "Phone": "&nbsp; (+380) 44-371-4088" }, "geometry": { "type": "Point", "coordinates": [ 30.395565, 50.404517, 0.0 ] } },
{ "type": "Feature", "properties": { "Name": "La Paz Bolivia Temple", "Phone": null }, "geometry": { "type": "Point", "coordinates": [ -68.089215, -16.5437122, 0.0 ] } },
{ "type": "Feature", "properties": { "Name": "Lagos Nigeria Temple", "Phone": null }, "geometry": { "type": "Point", "coordinates": [ 3.4313869, 6.4449073, 0.0 ] } },
{ "type": "Feature", "properties": { "Name": "Laie Hawaii Temple", "Phone": "&nbsp; (+1) 808-293-2427" }, "geometry": { "type": "Point", "coordinates": [ -157.930658, 21.647207, 0.0 ] } },
{ "type": "Feature", "properties": { "Name": "Laoag Philippines Temple", "Phone": null }, "geometry": { "type": "Point", "coordinates": [ 120.6173506, 18.1895899, 0.0 ] } },
{ "type": "Feature", "properties": { "Name": "Las Vegas Nevada Temple", "Phone": "&nbsp; (+1) 702-452-5011" }, "geometry": { "type": "Point", "coordinates": [ -115.020052, 36.174597, 0.0 ] } },
{ "type": "Feature", "properties": { "Name": "Layton Utah Temple", "Phone": "&nbsp; (+1) 385-306-5910" }, "geometry": { "type": "Point", "coordinates": [ -111.938379, 41.061699, 0.0 ] } },
{ "type": "Feature", "properties": { "Name": "Lehi Utah Temple", "Phone": null }, "geometry": { "type": "Point", "coordinates": [ -111.8510944, 40.4394057, 0.0 ] } },
{ "type": "Feature", "properties": { "Name": "Lethbridge Alberta Temple", "Phone": null }, "geometry": { "type": "Point", "coordinates": [ -112.91089, 49.6704143, 0.0 ] } },
{ "type": "Feature", "properties": { "Name": "Lima Peru Los Olivos Temple", "Phone": "&nbsp; (+51) 1-604-4960" }, "geometry": { "type": "Point", "coordinates": [ -77.054237, -12.019992, 0.0 ] } },
{ "type": "Feature", "properties": { "Name": "Lima Peru Temple", "Phone": "&nbsp; (+51) 1-612-7200" }, "geometry": { "type": "Point", "coordinates": [ -76.948897, -12.069713, 0.0 ] } },
{ "type": "Feature", "properties": { "Name": "Lindon Utah Temple", "Phone": null }, "geometry": { "type": "Point", "coordinates": [ -111.6953838, 40.3373044, 0.0 ] } },
{ "type": "Feature", "properties": { "Name": "Lisbon Portugal Temple", "Phone": "&nbsp; (+351) 308-811-650" }, "geometry": { "type": "Point", "coordinates": [ -9.098784, 38.779187, 0.0 ] } },
{ "type": "Feature", "properties": { "Name": "Liverpool Australia Temple", "Phone": null }, "geometry": { "type": "Point", "coordinates": [ 150.918014, -33.9286818, 0.0 ] } },
{ "type": "Feature", "properties": { "Name": "Logan Utah Temple", "Phone": "&nbsp; (+1) 435-752-3611" }, "geometry": { "type": "Point", "coordinates": [ -111.827943, 41.734161, 0.0 ] } },
{ "type": "Feature", "properties": { "Name": "London England Temple", "Phone": "&nbsp; (+44) 1342 831-400" }, "geometry": { "type": "Point", "coordinates": [ -0.052181, 51.162566, 0.0 ] } },
{ "type": "Feature", "properties": { "Name": "Londrina Brazil Temple", "Phone": null }, "geometry": { "type": "Point", "coordinates": [ -51.160186, -23.3446028, 0.0 ] } },
{ "type": "Feature", "properties": { "Name": "Lone Mountain Nevada Temple", "Phone": null }, "geometry": { "type": "Point", "coordinates": [ -115.304183, 36.2361958, 0.0 ] } },
{ "type": "Feature", "properties": { "Name": "Los Angeles California Temple", "Phone": "&nbsp; (+1) 310-474-5569" }, "geometry": { "type": "Point", "coordinates": [ -118.433909, 34.052801, 0.0 ] } },
{ "type": "Feature", "properties": { "Name": "Louisville Kentucky Temple", "Phone": "&nbsp; (+1) 502-241-4115" }, "geometry": { "type": "Point", "coordinates": [ -85.488843, 38.32112, 0.0 ] } },
{ "type": "Feature", "properties": { "Name": "Luanda Angola Temple", "Phone": null }, "geometry": { "type": "Point", "coordinates": [ 13.24395, -8.8270851, 0.0 ] } },
{ "type": "Feature", "properties": { "Name": "Lubbock Texas Temple", "Phone": "&nbsp; (+1) 806-794-0774" }, "geometry": { "type": "Point", "coordinates": [ -101.941413, 33.528961, 0.0 ] } },
{ "type": "Feature", "properties": { "Name": "Lubumbashi Democratic Republic of the Congo Temple", "Phone": null }, "geometry": { "type": "Point", "coordinates": [ 27.468461, -11.6488925, 0.0 ] } },
{ "type": "Feature", "properties": { "Name": "Maceió Brazil Temple", "Phone": null }, "geometry": { "type": "Point", "coordinates": [ -35.744046, -9.603346, 0.0 ] } },
{ "type": "Feature", "properties": { "Name": "Madrid Spain Temple", "Phone": "&nbsp; (+34) 91-214-2607" }, "geometry": { "type": "Point", "coordinates": [ -3.63158, 40.40009, 0.0 ] } },
{ "type": "Feature", "properties": { "Name": "Managua Nicaragua Temple", "Phone": null }, "geometry": { "type": "Point", "coordinates": [ -86.234252, 12.0909477, 0.0 ] } },
{ "type": "Feature", "properties": { "Name": "Manaus Brazil Temple", "Phone": "&nbsp; (+55) 92-3212-7270" }, "geometry": { "type": "Point", "coordinates": [ -60.089331, -3.073907, 0.0 ] } },
{ "type": "Feature", "properties": { "Name": "Manhattan New York Temple", "Phone": "&nbsp; (+1) 917-441-8220" }, "geometry": { "type": "Point", "coordinates": [ -73.981622, 40.773112, 0.0 ] } },
{ "type": "Feature", "properties": { "Name": "Manila Philippines Temple", "Phone": "&nbsp; (+63) 2-8635-9111" }, "geometry": { "type": "Point", "coordinates": [ 121.069818, 14.601356, 0.0 ] } },
{ "type": "Feature", "properties": { "Name": "Manti Utah Temple", "Phone": "&nbsp; (+1) 435-835-2291" }, "geometry": { "type": "Point", "coordinates": [ -111.63376, 39.272906, 0.0 ] } },
{ "type": "Feature", "properties": { "Name": "Maputo Mozambique Temple", "Phone": null }, "geometry": { "type": "Point", "coordinates": [ 32.505666, -25.9310915, 0.0 ] } },
{ "type": "Feature", "properties": { "Name": "Maracaibo Venezuela Temple", "Phone": null }, "geometry": { "type": "Point", "coordinates": [ -71.604347, 10.6693532, 0.0 ] } },
{ "type": "Feature", "properties": { "Name": "Mbuji-Mayi Democratic Republic of the Congo Temple", "Phone": null }, "geometry": { "type": "Point", "coordinates": [ 23.587411, -6.1216807, 0.0 ] } },
{ "type": "Feature", "properties": { "Name": "McAllen Texas Temple", "Phone": "&nbsp; (+1) 956-467-0795" }, "geometry": { "type": "Point", "coordinates": [ -98.211125, 26.268118, 0.0 ] } },
{ "type": "Feature", "properties": { "Name": "Medellín Colombia Temple", "Phone": null }, "geometry": { "type": "Point", "coordinates": [ -75.5765621, 6.2316288, 0.0 ] } },
{ "type": "Feature", "properties": { "Name": "Medford Oregon Temple", "Phone": "&nbsp; (+1) 541-664-2050" }, "geometry": { "type": "Point", "coordinates": [ -122.932746, 42.373324, 0.0 ] } },
{ "type": "Feature", "properties": { "Name": "Melbourne Australia Temple", "Phone": "&nbsp; (+61) 3-9881-9700" }, "geometry": { "type": "Point", "coordinates": [ 145.212622, -37.868774, 0.0 ] } },
{ "type": "Feature", "properties": { "Name": "Memphis Tennessee Temple", "Phone": "&nbsp; (+1) 901-379-0202" }, "geometry": { "type": "Point", "coordinates": [ -89.839334, 35.240752, 0.0 ] } },
{ "type": "Feature", "properties": { "Name": "Mendoza Argentina Temple", "Phone": "&nbsp; (+54) 261-476-6850" }, "geometry": { "type": "Point", "coordinates": [ -68.881592, -32.863757, 0.0 ] } },
{ "type": "Feature", "properties": { "Name": "Mérida Mexico Temple", "Phone": "&nbsp; (+52) 999-928-1643" }, "geometry": { "type": "Point", "coordinates": [ -89.631061, 20.965784, 0.0 ] } },
{ "type": "Feature", "properties": { "Name": "Meridian Idaho Temple", "Phone": "&nbsp; (+1) 208-957-7300" }, "geometry": { "type": "Point", "coordinates": [ -116.415115, 43.671022, 0.0 ] } },
{ "type": "Feature", "properties": { "Name": "Mesa Arizona Temple", "Phone": "&nbsp; (+1) 480-833-1211" }, "geometry": { "type": "Point", "coordinates": [ -111.819571, 33.412876, 0.0 ] } },
{ "type": "Feature", "properties": { "Name": "Mexico City Benemérito Mexico Temple", "Phone": null }, "geometry": { "type": "Point", "coordinates": [ -99.150919, 19.5348353, 0.0 ] } },
{ "type": "Feature", "properties": { "Name": "Mexico City Mexico Temple", "Phone": "&nbsp; (+52) 55-5003-3700" }, "geometry": { "type": "Point", "coordinates": [ -99.086754, 19.465905, 0.0 ] } },
{ "type": "Feature", "properties": { "Name": "Milan Italy Temple", "Phone": null }, "geometry": { "type": "Point", "coordinates": [ 9.1458007, 45.4926722, 0.0 ] } },
{ "type": "Feature", "properties": { "Name": "Milwaukee Wisconsin Temple", "Phone": null }, "geometry": { "type": "Point", "coordinates": [ -87.924202, 43.0356183, 0.0 ] } },
{ "type": "Feature", "properties": { "Name": "Miraflores Guatemala City Guatemala Temple", "Phone": null }, "geometry": { "type": "Point", "coordinates": [ -90.544983, 14.6072233, 0.0 ] } },
{ "type": "Feature", "properties": { "Name": "Missoula Montana Temple", "Phone": null }, "geometry": { "type": "Point", "coordinates": [ -114.067477, 46.8190079, 0.0 ] } },
{ "type": "Feature", "properties": { "Name": "Modesto California Temple", "Phone": null }, "geometry": { "type": "Point", "coordinates": [ -121.04679, 37.7027924, 0.0 ] } },
{ "type": "Feature", "properties": { "Name": "Monrovia Liberia Temple", "Phone": null }, "geometry": { "type": "Point", "coordinates": [ -10.806741, 6.3173535, 0.0 ] } },
{ "type": "Feature", "properties": { "Name": "Monterrey Mexico Temple", "Phone": "&nbsp; (+52) 81-8104-0635" }, "geometry": { "type": "Point", "coordinates": [ -100.259975, 25.589364, 0.0 ] } },
{ "type": "Feature", "properties": { "Name": "Montevideo Uruguay Temple", "Phone": "&nbsp; (+598) 2604-7300" }, "geometry": { "type": "Point", "coordinates": [ -56.074088, -34.888444, 0.0 ] } },
{ "type": "Feature", "properties": { "Name": "Monticello Utah Temple", "Phone": "&nbsp; (+1) 435-587-3500" }, "geometry": { "type": "Point", "coordinates": [ -109.347066, 37.877917, 0.0 ] } },
{ "type": "Feature", "properties": { "Name": "Montpelier Idaho Temple", "Phone": null }, "geometry": { "type": "Point", "coordinates": [ -111.30165, 42.3181918, 0.0 ] } },
{ "type": "Feature", "properties": { "Name": "Montreal Quebec Temple", "Phone": "&nbsp; (+1) 450-646-5775" }, "geometry": { "type": "Point", "coordinates": [ -73.490616, 45.563335, 0.0 ] } },
{ "type": "Feature", "properties": { "Name": "Moses Lake Washington Temple", "Phone": "&nbsp; (+1) 509-350-8120" }, "geometry": { "type": "Point", "coordinates": [ -119.272362, 47.103441, 0.0 ] } },
{ "type": "Feature", "properties": { "Name": "Mount Timpanogos Utah Temple", "Phone": "&nbsp; (+1) 801-763-4540" }, "geometry": { "type": "Point", "coordinates": [ -111.770509, 40.393166, 0.0 ] } },
{ "type": "Feature", "properties": { "Name": "Naga Philippines Temple", "Phone": null }, "geometry": { "type": "Point", "coordinates": [ 123.213323, 13.6122913, 0.0 ] } },
{ "type": "Feature", "properties": { "Name": "Nairobi Kenya Temple", "Phone": "&nbsp; (+254) 020-502-3000" }, "geometry": { "type": "Point", "coordinates": [ 36.739816, -1.2652955, 0.0 ] } },
{ "type": "Feature", "properties": { "Name": "Nashville Tennessee Temple", "Phone": "&nbsp; (+1) 615-791-8668" }, "geometry": { "type": "Point", "coordinates": [ -86.860329, 35.948839, 0.0 ] } },
{ "type": "Feature", "properties": { "Name": "Natal Brazil Temple", "Phone": null }, "geometry": { "type": "Point", "coordinates": [ -35.222713, -5.877853, 0.0 ] } },
{ "type": "Feature", "properties": { "Name": "Nauvoo Illinois Temple", "Phone": "&nbsp; (+1) 217-453-6252" }, "geometry": { "type": "Point", "coordinates": [ -91.384378, 40.55048, 0.0 ] } },
{ "type": "Feature", "properties": { "Name": "Nauvoo Temple", "Phone": null }, "geometry": { "type": "Point", "coordinates": [ -91.3843, 40.550464, 0.0 ] } },
{ "type": "Feature", "properties": { "Name": "Neiafu Tonga Temple", "Phone": null }, "geometry": { "type": "Point", "coordinates": [ -173.9776, -18.6442286, 0.0 ] } },
{ "type": "Feature", "properties": { "Name": "Newport Beach California Temple", "Phone": "&nbsp; (+1) 949-644-1820" }, "geometry": { "type": "Point", "coordinates": [ -117.848766, 33.629627, 0.0 ] } },
{ "type": "Feature", "properties": { "Name": "Norfolk Virginia Temple", "Phone": null }, "geometry": { "type": "Point", "coordinates": [ -76.4452079, 36.8642308, 0.0 ] } },
{ "type": "Feature", "properties": { "Name": "Nouméa New Caledonia Temple", "Phone": null }, "geometry": { "type": "Point", "coordinates": [ 166.46349, -22.2674372, 0.0 ] } },
{ "type": "Feature", "properties": { "Name": "Nuku'alofa Tonga Temple", "Phone": "&nbsp; (+676) 20-300" }, "geometry": { "type": "Point", "coordinates": [ -175.27232, -21.162561, 0.0 ] } },
{ "type": "Feature", "properties": { "Name": "Oakland California Temple", "Phone": "&nbsp; (+1) 510-531-3200" }, "geometry": { "type": "Point", "coordinates": [ -122.19912, 37.808027, 0.0 ] } },
{ "type": "Feature", "properties": { "Name": "Oaxaca Mexico Temple", "Phone": "&nbsp; (+52) 951-516-9588" }, "geometry": { "type": "Point", "coordinates": [ -96.713503, 17.041554, 0.0 ] } },
{ "type": "Feature", "properties": { "Name": "Ogden Utah Temple", "Phone": "&nbsp; (+1) 801-621-6880" }, "geometry": { "type": "Point", "coordinates": [ -111.971506, 41.227786, 0.0 ] } },
{ "type": "Feature", "properties": { "Name": "Okinawa Japan Temple", "Phone": "&nbsp; (+81) 98-993-9870" }, "geometry": { "type": "Point", "coordinates": [ 127.801718, 26.358285, 0.0 ] } },
{ "type": "Feature", "properties": { "Name": "Oklahoma City Oklahoma Temple", "Phone": "&nbsp; (+1) 405-373-2309" }, "geometry": { "type": "Point", "coordinates": [ -97.7267, 35.591846, 0.0 ] } },
{ "type": "Feature", "properties": { "Name": "Oquirrh Mountain Utah Temple", "Phone": "&nbsp; (+1) 801-878-3800" }, "geometry": { "type": "Point", "coordinates": [ -111.98751, 40.551145, 0.0 ] } },
{ "type": "Feature", "properties": { "Name": "Orem Utah Temple", "Phone": "&nbsp; (+1) 801-762-6720" }, "geometry": { "type": "Point", "coordinates": [ -111.720916, 40.270755, 0.0 ] } },
{ "type": "Feature", "properties": { "Name": "Orlando Florida Temple", "Phone": "&nbsp; (+1) 407-876-0022" }, "geometry": { "type": "Point", "coordinates": [ -81.509578, 28.507348, 0.0 ] } },
{ "type": "Feature", "properties": { "Name": "Osaka Japan Temple", "Phone": null }, "geometry": { "type": "Point", "coordinates": [ 135.715121, 34.8167778, 0.0 ] } },
{ "type": "Feature", "properties": { "Name": "Oslo Norway Temple", "Phone": null }, "geometry": { "type": "Point", "coordinates": [ 10.4803346, 59.8579504, 0.0 ] } },
{ "type": "Feature", "properties": { "Name": "Pachuca Mexico Temple", "Phone": null }, "geometry": { "type": "Point", "coordinates": [ -98.762569, 20.1022741, 0.0 ] } },
{ "type": "Feature", "properties": { "Name": "Pago Pago American Samoa Temple", "Phone": null }, "geometry": { "type": "Point", "coordinates": [ -170.73199, -14.333959, 0.0 ] } },
{ "type": "Feature", "properties": { "Name": "Palmyra New York Temple", "Phone": "&nbsp; (+1) 315-597-6001" }, "geometry": { "type": "Point", "coordinates": [ -77.237063, 43.039148, 0.0 ] } },
{ "type": "Feature", "properties": { "Name": "Panama City Panama Temple", "Phone": "&nbsp; (+507) 201-6233" }, "geometry": { "type": "Point", "coordinates": [ -79.57048, 8.99146, 0.0 ] } },
{ "type": "Feature", "properties": { "Name": "Papeete Tahiti Temple", "Phone": "&nbsp; (+689) 40-50-3939" }, "geometry": { "type": "Point", "coordinates": [ -149.556019, -17.536618, 0.0 ] } },
{ "type": "Feature", "properties": { "Name": "Paris France Temple", "Phone": "&nbsp; (+33) 970-73-70-00" }, "geometry": { "type": "Point", "coordinates": [ 2.123171, 48.817892, 0.0 ] } },
{ "type": "Feature", "properties": { "Name": "Payson Utah Temple", "Phone": "&nbsp; (+1) 801-754-4949" }, "geometry": { "type": "Point", "coordinates": [ -111.749175, 40.019258, 0.0 ] } },
{ "type": "Feature", "properties": { "Name": "Perth Australia Temple", "Phone": "&nbsp; (+61) 8-9276-0000" }, "geometry": { "type": "Point", "coordinates": [ 115.869834, -31.906905, 0.0 ] } },
{ "type": "Feature", "properties": { "Name": "Philadelphia Pennsylvania Temple", "Phone": "&nbsp; (+1) 215-398-3040" }, "geometry": { "type": "Point", "coordinates": [ -75.168072, 39.959174, 0.0 ] } },
{ "type": "Feature", "properties": { "Name": "Phnom Penh Cambodia Temple", "Phone": null }, "geometry": { "type": "Point", "coordinates": [ 104.895707, 11.569891, 0.0 ] } },
{ "type": "Feature", "properties": { "Name": "Phoenix Arizona Temple", "Phone": "&nbsp; (+1) 623-474-9500" }, "geometry": { "type": "Point", "coordinates": [ -112.172329, 33.698555, 0.0 ] } },
{ "type": "Feature", "properties": { "Name": "Pittsburgh Pennsylvania Temple", "Phone": "&nbsp; (+1) 878-208-1325" }, "geometry": { "type": "Point", "coordinates": [ -80.140918, 40.6940483, 0.0 ] } },
{ "type": "Feature", "properties": { "Name": "Piura Peru Temple", "Phone": null }, "geometry": { "type": "Point", "coordinates": [ -80.626906, -5.1680937, 0.0 ] } },
{ "type": "Feature", "properties": { "Name": "Pocatello Idaho Temple", "Phone": "&nbsp; (+1) 208-646-7730" }, "geometry": { "type": "Point", "coordinates": [ -112.406374, 42.915259, 0.0 ] } },
{ "type": "Feature", "properties": { "Name": "Port Moresby Papua New Guinea Temple", "Phone": null }, "geometry": { "type": "Point", "coordinates": [ 147.176546, -9.477474, 0.0 ] } },
{ "type": "Feature", "properties": { "Name": "Port Vila Vanuatu Temple", "Phone": null }, "geometry": { "type": "Point", "coordinates": [ 168.30421, -17.7037913, 0.0 ] } },
{ "type": "Feature", "properties": { "Name": "Port-au-Prince Haiti Temple", "Phone": "&nbsp; (+509) 2262-5810" }, "geometry": { "type": "Point", "coordinates": [ -72.268143, 18.529017, 0.0 ] } },
{ "type": "Feature", "properties": { "Name": "Portland Maine Temple", "Phone": null }, "geometry": { "type": "Point", "coordinates": [ -70.2701665, 43.6618615, 0.0 ] } },
{ "type": "Feature", "properties": { "Name": "Portland Oregon Temple", "Phone": "&nbsp; (+1) 503-639-7066" }, "geometry": { "type": "Point", "coordinates": [ -122.742224, 45.425345, 0.0 ] } },
{ "type": "Feature", "properties": { "Name": "Porto Alegre Brazil Temple", "Phone": "&nbsp; (+55) 51-2104-2700" }, "geometry": { "type": "Point", "coordinates": [ -51.157868, -30.034047, 0.0 ] } },
{ "type": "Feature", "properties": { "Name": "Porto Portugal Temple", "Phone": null }, "geometry": { "type": "Point", "coordinates": [ -8.578946, 41.1497618, 0.0 ] } },
{ "type": "Feature", "properties": { "Name": "Praia Cape Verde Temple", "Phone": "&nbsp; (+238) 953-6711" }, "geometry": { "type": "Point", "coordinates": [ -23.511157, 14.918789, 0.0 ] } },
{ "type": "Feature", "properties": { "Name": "Preston England Temple", "Phone": "&nbsp; (+44) 1257-226-100" }, "geometry": { "type": "Point", "coordinates": [ -2.631275, 53.672476, 0.0 ] } },
{ "type": "Feature", "properties": { "Name": "Price Utah Temple", "Phone": null }, "geometry": { "type": "Point", "coordinates": [ -110.818843, 39.6012529, 0.0 ] } },
{ "type": "Feature", "properties": { "Name": "Provo City Center Temple", "Phone": "&nbsp; (+1) 801-343-2700" }, "geometry": { "type": "Point", "coordinates": [ -111.659299, 40.232667, 0.0 ] } },
{ "type": "Feature", "properties": { "Name": "Provo Utah Rock Canyon Temple", "Phone": null }, "geometry": { "type": "Point", "coordinates": [ -111.6405, 40.2634716, 0.0 ] } },
{ "type": "Feature", "properties": { "Name": "Puebla Mexico Temple", "Phone": "&nbsp; (+52) 222-686-8720" }, "geometry": { "type": "Point", "coordinates": [ -98.235514, 19.085418, 0.0 ] } },
{ "type": "Feature", "properties": { "Name": "Puerto Montt Chile Temple", "Phone": null }, "geometry": { "type": "Point", "coordinates": [ -72.8884762, -41.4894274, 0.0 ] } },
{ "type": "Feature", "properties": { "Name": "Queen Creek Arizona Temple", "Phone": null }, "geometry": { "type": "Point", "coordinates": [ -111.637795, 33.2486823, 0.0 ] } },
{ "type": "Feature", "properties": { "Name": "Querétaro Mexico Temple", "Phone": null }, "geometry": { "type": "Point", "coordinates": [ -100.410611, 20.6133556, 0.0 ] } },
{ "type": "Feature", "properties": { "Name": "Quetzaltenango Guatemala Temple", "Phone": "&nbsp; (+502) 7728-1603" }, "geometry": { "type": "Point", "coordinates": [ -91.542517, 14.846493, 0.0 ] } },
{ "type": "Feature", "properties": { "Name": "Quito Ecuador Temple", "Phone": "&nbsp; (+593) 2380 2960" }, "geometry": { "type": "Point", "coordinates": [ -78.441018, -0.213711, 0.0 ] } },
{ "type": "Feature", "properties": { "Name": "Raleigh North Carolina Temple", "Phone": "&nbsp; (+1) 919-362-4135" }, "geometry": { "type": "Point", "coordinates": [ -78.861542, 35.732111, 0.0 ] } },
{ "type": "Feature", "properties": { "Name": "Rapid City South Dakota Temple", "Phone": null }, "geometry": { "type": "Point", "coordinates": [ -103.251149, 44.0052445, 0.0 ] } },
{ "type": "Feature", "properties": { "Name": "Recife Brazil Temple", "Phone": "&nbsp; (+55) 81-2129-4300" }, "geometry": { "type": "Point", "coordinates": [ -34.911123, -8.03639, 0.0 ] } },
{ "type": "Feature", "properties": { "Name": "Red Cliffs Utah Temple", "Phone": "&nbsp; (+1) 435-599-7350" }, "geometry": { "type": "Point", "coordinates": [ -113.519741, 37.082184, 0.0 ] } },
{ "type": "Feature", "properties": { "Name": "Redlands California Temple", "Phone": "&nbsp; (+1) 909-389-7369" }, "geometry": { "type": "Point", "coordinates": [ -117.140579, 34.049037, 0.0 ] } },
{ "type": "Feature", "properties": { "Name": "Regina Saskatchewan Temple", "Phone": "&nbsp; (+1) 306-545-8194" }, "geometry": { "type": "Point", "coordinates": [ -104.54168, 50.420981, 0.0 ] } },
{ "type": "Feature", "properties": { "Name": "Reno Nevada Temple", "Phone": "&nbsp; (+1) 775-747-6688" }, "geometry": { "type": "Point", "coordinates": [ -119.898913, 39.534611, 0.0 ] } },
{ "type": "Feature", "properties": { "Name": "Retalhuleu Guatemala Temple", "Phone": null }, "geometry": { "type": "Point", "coordinates": [ -91.6551607, 14.5539284, 0.0 ] } },
{ "type": "Feature", "properties": { "Name": "Rexburg Idaho Temple", "Phone": "&nbsp; (+1) 208-656-0880" }, "geometry": { "type": "Point", "coordinates": [ -111.778979, 43.810922, 0.0 ] } },
{ "type": "Feature", "properties": { "Name": "Reynosa Mexico Temple", "Phone": null }, "geometry": { "type": "Point", "coordinates": [ -98.370262, 26.054794, 0.0 ] } },
{ "type": "Feature", "properties": { "Name": "Ribeirão Preto Brazil Temple", "Phone": null }, "geometry": { "type": "Point", "coordinates": [ -47.80927, -21.2160709, 0.0 ] } },
{ "type": "Feature", "properties": { "Name": "Richmond Virginia Temple", "Phone": "&nbsp; (+1) 804-807-7790" }, "geometry": { "type": "Point", "coordinates": [ -77.535372, 37.672884, 0.0 ] } },
{ "type": "Feature", "properties": { "Name": "Rio de Janeiro Brazil Temple", "Phone": "&nbsp; (+55) 21-3906-4600" }, "geometry": { "type": "Point", "coordinates": [ -43.399918, -23.000894, 0.0 ] } },
{ "type": "Feature", "properties": { "Name": "Rivera Uruguay Temple", "Phone": null }, "geometry": { "type": "Point", "coordinates": [ -55.53563, -30.9119398, 0.0 ] } },
{ "type": "Feature", "properties": { "Name": "Roanoke Virginia Temple", "Phone": null }, "geometry": { "type": "Point", "coordinates": [ -79.938496, 37.2822704, 0.0 ] } },
{ "type": "Feature", "properties": { "Name": "Rome Italy Temple", "Phone": "&nbsp; (+39) 06-9480-5050" }, "geometry": { "type": "Point", "coordinates": [ 12.544764, 41.970437, 0.0 ] } },
{ "type": "Feature", "properties": { "Name": "Rosario Argentina Temple", "Phone": null }, "geometry": { "type": "Point", "coordinates": [ -60.6530972, -32.9316412, 0.0 ] } },
{ "type": "Feature", "properties": { "Name": "Russia Temple", "Phone": null }, "geometry": { "type": "Point", "coordinates": [ 37.673056, 55.8952, 0.0 ] } },
{ "type": "Feature", "properties": { "Name": "Sacramento California Temple", "Phone": "&nbsp; (+1) 916-357-5870" }, "geometry": { "type": "Point", "coordinates": [ -121.193925, 38.635116, 0.0 ] } },
{ "type": "Feature", "properties": { "Name": "Salt Lake Temple", "Phone": "&nbsp; (+1) 801-240-2640" }, "geometry": { "type": "Point", "coordinates": [ -111.891958, 40.770468, 0.0 ] } },
{ "type": "Feature", "properties": { "Name": "Salta Argentina Temple", "Phone": "&nbsp; (+54) 387-432-4300" }, "geometry": { "type": "Point", "coordinates": [ -65.470001, -24.837197, 0.0 ] } },
{ "type": "Feature", "properties": { "Name": "Salvador Brazil Temple", "Phone": "&nbsp; (+55) 71 3616-9270" }, "geometry": { "type": "Point", "coordinates": [ -38.386386, -12.929251, 0.0 ] } },
{ "type": "Feature", "properties": { "Name": "San Antonio Texas Temple", "Phone": "&nbsp; (+1) 210-538-0034" }, "geometry": { "type": "Point", "coordinates": [ -98.488789, 29.641481, 0.0 ] } },
{ "type": "Feature", "properties": { "Name": "San Diego California Temple", "Phone": "&nbsp; (+1) 858-622-0991" }, "geometry": { "type": "Point", "coordinates": [ -117.228769, 32.866389, 0.0 ] } },
{ "type": "Feature", "properties": { "Name": "San José Costa Rica Temple", "Phone": "&nbsp; (+506) 2293-6681" }, "geometry": { "type": "Point", "coordinates": [ -84.184831, 9.986418, 0.0 ] } },
{ "type": "Feature", "properties": { "Name": "San Jose del Monte Philippines Temple", "Phone": null }, "geometry": { "type": "Point", "coordinates": [ 121.078163, 14.8379509, 0.0 ] } },
{ "type": "Feature", "properties": { "Name": "San Juan Puerto Rico Temple", "Phone": "&nbsp; (+1) 787-522-2070" }, "geometry": { "type": "Point", "coordinates": [ -66.029896, 18.385623, 0.0 ] } },
{ "type": "Feature", "properties": { "Name": "San Luis Potosí Mexico Temple", "Phone": null }, "geometry": { "type": "Point", "coordinates": [ -101.01515, 22.1532058, 0.0 ] } },
{ "type": "Feature", "properties": { "Name": "San Pedro Sula Honduras Temple", "Phone": "&nbsp; (+504) 214-1655" }, "geometry": { "type": "Point", "coordinates": [ -88.036856, 15.522544, 0.0 ] } },
{ "type": "Feature", "properties": { "Name": "San Salvador El Salvador Temple", "Phone": "&nbsp; (+503) 2520-2631" }, "geometry": { "type": "Point", "coordinates": [ -89.246822, 13.683347, 0.0 ] } },
{ "type": "Feature", "properties": { "Name": "Santa Ana El Salvador Temple", "Phone": null }, "geometry": { "type": "Point", "coordinates": [ -89.547353, 13.9851727, 0.0 ] } },
{ "type": "Feature", "properties": { "Name": "Santa Cruz Bolivia Temple", "Phone": null }, "geometry": { "type": "Point", "coordinates": [ -63.17467, -17.7385516, 0.0 ] } },
{ "type": "Feature", "properties": { "Name": "Santiago Chile Temple", "Phone": "&nbsp; (+56) 22-340-5070" }, "geometry": { "type": "Point", "coordinates": [ -70.609521, -33.436174, 0.0 ] } },
{ "type": "Feature", "properties": { "Name": "Santiago Dominican Republic Temple", "Phone": null }, "geometry": { "type": "Point", "coordinates": [ -70.6868361, 19.4498217, 0.0 ] } },
{ "type": "Feature", "properties": { "Name": "Santiago Philippines Temple", "Phone": null }, "geometry": { "type": "Point", "coordinates": [ 121.561326, 16.6856625, 0.0 ] } },
{ "type": "Feature", "properties": { "Name": "Santiago West Chile Temple", "Phone": null }, "geometry": { "type": "Point", "coordinates": [ -70.73773, -33.4928023, 0.0 ] } },
{ "type": "Feature", "properties": { "Name": "Santo Domingo Dominican Republic Temple", "Phone": "&nbsp; (+1) 809-731-2000" }, "geometry": { "type": "Point", "coordinates": [ -69.917144, 18.466567, 0.0 ] } },
{ "type": "Feature", "properties": { "Name": "Santos Brazil Temple", "Phone": null }, "geometry": { "type": "Point", "coordinates": [ -46.334198, -23.9428633, 0.0 ] } },
{ "type": "Feature", "properties": { "Name": "São Paulo Brazil Temple", "Phone": "&nbsp; (+55) 11-3723-7600" }, "geometry": { "type": "Point", "coordinates": [ -46.722764, -23.585174, 0.0 ] } },
{ "type": "Feature", "properties": { "Name": "São Paulo East Brazil Temple", "Phone": null }, "geometry": { "type": "Point", "coordinates": [ -46.54444, -23.5551882, 0.0 ] } },
{ "type": "Feature", "properties": { "Name": "Sapporo Japan Temple", "Phone": "&nbsp; (+81) 11-890-8120" }, "geometry": { "type": "Point", "coordinates": [ 141.4457, 43.0249, 0.0 ] } },
{ "type": "Feature", "properties": { "Name": "Saratoga Springs Utah Temple", "Phone": "&nbsp; (+1) 801-341-1860" }, "geometry": { "type": "Point", "coordinates": [ -111.932607, 40.3442262, 0.0 ] } },
{ "type": "Feature", "properties": { "Name": "Savai'i Samoa Temple", "Phone": null }, "geometry": { "type": "Point", "coordinates": [ -172.2318, -13.751896, 0.0 ] } },
{ "type": "Feature", "properties": { "Name": "Seattle Washington Temple", "Phone": "&nbsp; (+1) 425-643-5144" }, "geometry": { "type": "Point", "coordinates": [ -122.140876, 47.58407, 0.0 ] } },
{ "type": "Feature", "properties": { "Name": "Seoul Korea Temple", "Phone": "&nbsp; (+82) 2-330-2700" }, "geometry": { "type": "Point", "coordinates": [ 126.931286, 37.558913, 0.0 ] } },
{ "type": "Feature", "properties": { "Name": "Shanghai People's Republic of China Temple", "Phone": null }, "geometry": { "type": "Point", "coordinates": [ 121.495904, 31.210229, 0.0 ] } },
{ "type": "Feature", "properties": { "Name": "Singapore Temple", "Phone": null }, "geometry": { "type": "Point", "coordinates": [ 103.784842, 1.2799525, 0.0 ] } },
{ "type": "Feature", "properties": { "Name": "Smithfield Utah Temple", "Phone": null }, "geometry": { "type": "Point", "coordinates": [ -111.852673, 41.8401292, 0.0 ] } },
{ "type": "Feature", "properties": { "Name": "Snowflake Arizona Temple", "Phone": "&nbsp; (+1) 928-536-6626" }, "geometry": { "type": "Point", "coordinates": [ -110.111607, 34.502494, 0.0 ] } },
{ "type": "Feature", "properties": { "Name": "Spanish Fork Utah Temple", "Phone": null }, "geometry": { "type": "Point", "coordinates": [ -111.61407, 40.106976, 0.0 ] } },
{ "type": "Feature", "properties": { "Name": "Spokane Washington Temple", "Phone": "&nbsp; (+1) 509-926-2824" }, "geometry": { "type": "Point", "coordinates": [ -117.22069, 47.620163, 0.0 ] } },
{ "type": "Feature", "properties": { "Name": "Springfield Missouri Temple", "Phone": null }, "geometry": { "type": "Point", "coordinates": [ -93.243289, 37.1023896, 0.0 ] } },
{ "type": "Feature", "properties": { "Name": "St. George Utah Temple", "Phone": "&nbsp; (+1) 435-673-3533" }, "geometry": { "type": "Point", "coordinates": [ -113.578041, 37.100535, 0.0 ] } },
{ "type": "Feature", "properties": { "Name": "St. Louis Missouri Temple", "Phone": "&nbsp; (+1) 314-514-1122" }, "geometry": { "type": "Point", "coordinates": [ -90.464685, 38.639651, 0.0 ] } },
{ "type": "Feature", "properties": { "Name": "St. Paul Minnesota Temple", "Phone": "&nbsp; (+1) 651-748-5910" }, "geometry": { "type": "Point", "coordinates": [ -92.965199, 44.980261, 0.0 ] } },
{ "type": "Feature", "properties": { "Name": "Star Valley Wyoming Temple", "Phone": "&nbsp; (+1) 307-886-6820" }, "geometry": { "type": "Point", "coordinates": [ -110.932532, 42.712073, 0.0 ] } },
{ "type": "Feature", "properties": { "Name": "Stockholm Sweden Temple", "Phone": "&nbsp; (+46) 8-5006-5500" }, "geometry": { "type": "Point", "coordinates": [ 18.109177, 59.124676, 0.0 ] } },
{ "type": "Feature", "properties": { "Name": "Summit New Jersey Temple", "Phone": null }, "geometry": { "type": "Point", "coordinates": [ -74.3435575, 40.7344208, 0.0 ] } },
{ "type": "Feature", "properties": { "Name": "Sunnyvale California Temple", "Phone": null }, "geometry": { "type": "Point", "coordinates": [ -122.04434, 37.3529737, 0.0 ] } },
{ "type": "Feature", "properties": { "Name": "Suva Fiji Temple", "Phone": "&nbsp; (+679) 338-8949" }, "geometry": { "type": "Point", "coordinates": [ 178.438559, -18.119705, 0.0 ] } },
{ "type": "Feature", "properties": { "Name": "Sydney Australia Temple", "Phone": "&nbsp; (+61) 2-9841-5471" }, "geometry": { "type": "Point", "coordinates": [ 151.050592, -33.775617, 0.0 ] } },
{ "type": "Feature", "properties": { "Name": "Syracuse Utah Temple", "Phone": "&nbsp; (+1) 385-383-2270" }, "geometry": { "type": "Point", "coordinates": [ -112.076303, 41.0990701, 0.0 ] } },
{ "type": "Feature", "properties": { "Name": "Tacloban City Philippines Temple", "Phone": null }, "geometry": { "type": "Point", "coordinates": [ 124.984491, 11.2237708, 0.0 ] } },
{ "type": "Feature", "properties": { "Name": "Tacoma Washington Temple", "Phone": null }, "geometry": { "type": "Point", "coordinates": [ -122.316361, 47.2741937, 0.0 ] } },
{ "type": "Feature", "properties": { "Name": "Taipei Taiwan Temple", "Phone": "&nbsp; (+886) 2-2192-4930" }, "geometry": { "type": "Point", "coordinates": [ 121.527794, 25.031377, 0.0 ] } },
{ "type": "Feature", "properties": { "Name": "Tallahassee Florida Temple", "Phone": "&nbsp; (+1) 850-201-7410" }, "geometry": { "type": "Point", "coordinates": [ -84.238222, 30.520117, 0.0 ] } },
{ "type": "Feature", "properties": { "Name": "Tampa Florida Temple", "Phone": null }, "geometry": { "type": "Point", "coordinates": [ -82.349924, 27.9089741, 0.0 ] } },
{ "type": "Feature", "properties": { "Name": "Tampico Mexico Temple", "Phone": "&nbsp; (+52) 833-216-9660" }, "geometry": { "type": "Point", "coordinates": [ -97.855869, 22.254262, 0.0 ] } },
{ "type": "Feature", "properties": { "Name": "Tarawa Kiribati Temple", "Phone": null }, "geometry": { "type": "Point", "coordinates": [ 173.040061, 1.3494848, 0.0 ] } },
{ "type": "Feature", "properties": { "Name": "Taylorsville Utah Temple", "Phone": "&nbsp; (+1) 385-855-7550" }, "geometry": { "type": "Point", "coordinates": [ -111.95411, 40.6667116, 0.0 ] } },
{ "type": "Feature", "properties": { "Name": "Tegucigalpa Honduras Temple", "Phone": "&nbsp; (+504) 2264-1212" }, "geometry": { "type": "Point", "coordinates": [ -87.238019, 14.052174, 0.0 ] } },
{ "type": "Feature", "properties": { "Name": "Teresina Brazil Temple", "Phone": null }, "geometry": { "type": "Point", "coordinates": [ -42.779871, -5.0884209, 0.0 ] } },
{ "type": "Feature", "properties": { "Name": "Teton River Idaho Temple", "Phone": null }, "geometry": { "type": "Point", "coordinates": [ -111.7814, 43.8607146, 0.0 ] } },
{ "type": "Feature", "properties": { "Name": "The Gila Valley Arizona Temple", "Phone": "&nbsp; (+1) 928-428-7243" }, "geometry": { "type": "Point", "coordinates": [ -109.789974, 32.862971, 0.0 ] } },
{ "type": "Feature", "properties": { "Name": "The Hague Netherlands Temple", "Phone": "&nbsp; (+31) 79-343-5310" }, "geometry": { "type": "Point", "coordinates": [ 4.502979, 52.054487, 0.0 ] } },
{ "type": "Feature", "properties": { "Name": "Tijuana Mexico Temple", "Phone": "&nbsp; (+52) 664-969-2690" }, "geometry": { "type": "Point", "coordinates": [ -116.929441, 32.488713, 0.0 ] } },
{ "type": "Feature", "properties": { "Name": "Tokyo Japan Temple", "Phone": "&nbsp; (+81) 3-4545-3000" }, "geometry": { "type": "Point", "coordinates": [ 139.724539, 35.652838, 0.0 ] } },
{ "type": "Feature", "properties": { "Name": "Toluca Mexico Temple", "Phone": null }, "geometry": { "type": "Point", "coordinates": [ -99.626874, 19.2523025, 0.0 ] } },
{ "type": "Feature", "properties": { "Name": "Toronto Ontario Temple", "Phone": "&nbsp; (+1) 905-799-1122" }, "geometry": { "type": "Point", "coordinates": [ -79.746059, 43.744338, 0.0 ] } },
{ "type": "Feature", "properties": { "Name": "Torreón Mexico Temple", "Phone": null }, "geometry": { "type": "Point", "coordinates": [ -103.499227, 25.5533185, 0.0 ] } },
{ "type": "Feature", "properties": { "Name": "Trujillo Peru Temple", "Phone": "&nbsp; (+51) 44-602-130" }, "geometry": { "type": "Point", "coordinates": [ -79.058515, -8.100149, 0.0 ] } },
{ "type": "Feature", "properties": { "Name": "Tucson Arizona Temple", "Phone": "&nbsp; (+1) 520-395-3900" }, "geometry": { "type": "Point", "coordinates": [ -110.949174, 32.338454, 0.0 ] } },
{ "type": "Feature", "properties": { "Name": "Tuguegarao City Philippines Temple", "Phone": null }, "geometry": { "type": "Point", "coordinates": [ 121.751638, 17.6501341, 0.0 ] } },
{ "type": "Feature", "properties": { "Name": "Tula Mexico Temple", "Phone": null }, "geometry": { "type": "Point", "coordinates": [ -99.340022, 20.0558835, 0.0 ] } },
{ "type": "Feature", "properties": { "Name": "Tulsa Oklahoma Temple", "Phone": null }, "geometry": { "type": "Point", "coordinates": [ -95.826161, 36.0918677, 0.0 ] } },
{ "type": "Feature", "properties": { "Name": "Tuxtla Gutiérrez Mexico Temple", "Phone": "&nbsp; (+52) 961-615-8287" }, "geometry": { "type": "Point", "coordinates": [ -93.159155, 16.764164, 0.0 ] } },
{ "type": "Feature", "properties": { "Name": "Twin Falls Idaho Temple", "Phone": "&nbsp; (+1) 208-736-7070" }, "geometry": { "type": "Point", "coordinates": [ -114.441509, 42.586827, 0.0 ] } },
{ "type": "Feature", "properties": { "Name": "Ulaanbaatar Mongolia Temple", "Phone": null }, "geometry": { "type": "Point", "coordinates": [ 106.8146598, 47.8645735, 0.0 ] } },
{ "type": "Feature", "properties": { "Name": "Urdaneta Philippines Temple", "Phone": "&nbsp; (+63) 075-204-6600" }, "geometry": { "type": "Point", "coordinates": [ 120.581762, 15.938567, 0.0 ] } },
{ "type": "Feature", "properties": { "Name": "Uturoa French Polynesia Temple", "Phone": null }, "geometry": { "type": "Point", "coordinates": [ -151.4448, -16.7289127, 0.0 ] } },
{ "type": "Feature", "properties": { "Name": "Uyo Nigeria Temple", "Phone": null }, "geometry": { "type": "Point", "coordinates": [ 7.9280715, 5.0347131, 0.0 ] } },
{ "type": "Feature", "properties": { "Name": "Vancouver British Columbia Temple", "Phone": "&nbsp; (+1) 604-513-5933" }, "geometry": { "type": "Point", "coordinates": [ -122.658009, 49.151212, 0.0 ] } },
{ "type": "Feature", "properties": { "Name": "Vancouver Washington Temple", "Phone": null }, "geometry": { "type": "Point", "coordinates": [ -122.46934, 45.6077226, 0.0 ] } },
{ "type": "Feature", "properties": { "Name": "Veracruz Mexico Temple", "Phone": "&nbsp; (+52) 229-922-9621" }, "geometry": { "type": "Point", "coordinates": [ -96.10626, 19.13441, 0.0 ] } },
{ "type": "Feature", "properties": { "Name": "Vernal Utah Temple", "Phone": "&nbsp; (+1) 435-789-3220" }, "geometry": { "type": "Point", "coordinates": [ -109.537413, 40.453205, 0.0 ] } },
{ "type": "Feature", "properties": { "Name": "Victoria British Columbia Temple", "Phone": null }, "geometry": { "type": "Point", "coordinates": [ -123.52195, 48.4510026, 0.0 ] } },
{ "type": "Feature", "properties": { "Name": "Vienna Austria Temple", "Phone": null }, "geometry": { "type": "Point", "coordinates": [ 16.3493719, 48.2431266, 0.0 ] } },
{ "type": "Feature", "properties": { "Name": "Villahermosa Mexico Temple", "Phone": "&nbsp; (+52) 993-352-2028" }, "geometry": { "type": "Point", "coordinates": [ -92.937375, 17.981276, 0.0 ] } },
{ "type": "Feature", "properties": { "Name": "Viña del Mar Chile Temple", "Phone": null }, "geometry": { "type": "Point", "coordinates": [ -71.5456912, -33.0208548, 0.0 ] } },
{ "type": "Feature", "properties": { "Name": "Vitória Brazil Temple", "Phone": null }, "geometry": { "type": "Point", "coordinates": [ -40.304767, -20.29638, 0.0 ] } },
{ "type": "Feature", "properties": { "Name": "Washington D.C. Temple", "Phone": "&nbsp; (+1) 301-588-0650" }, "geometry": { "type": "Point", "coordinates": [ -77.065624, 39.014079, 0.0 ] } },
{ "type": "Feature", "properties": { "Name": "Wellington New Zealand Temple", "Phone": null }, "geometry": { "type": "Point", "coordinates": [ 174.85459, -41.1232608, 0.0 ] } },
{ "type": "Feature", "properties": { "Name": "West Jordan Utah Temple", "Phone": null }, "geometry": { "type": "Point", "coordinates": [ -112.068361, 40.62038, 0.0 ] } },
{ "type": "Feature", "properties": { "Name": "Wichita Kansas Temple", "Phone": null }, "geometry": { "type": "Point", "coordinates": [ -97.373413, 37.7750938, 0.0 ] } },
{ "type": "Feature", "properties": { "Name": "Willamette Valley Oregon Temple", "Phone": null }, "geometry": { "type": "Point", "coordinates": [ -123.03278, 44.0888589, 0.0 ] } },
{ "type": "Feature", "properties": { "Name": "Winchester Virginia Temple", "Phone": null }, "geometry": { "type": "Point", "coordinates": [ -78.1913495, 39.1882733, 0.0 ] } },
{ "type": "Feature", "properties": { "Name": "Winnipeg Manitoba Temple", "Phone": "&nbsp; (+1) 204-261-2200" }, "geometry": { "type": "Point", "coordinates": [ -97.195212, 49.800544, 0.0 ] } },
{ "type": "Feature", "properties": { "Name": "Winter Quarters Nebraska Temple", "Phone": "&nbsp; (+1) 402-453-3406" }, "geometry": { "type": "Point", "coordinates": [ -95.96619, 41.334075, 0.0 ] } },
{ "type": "Feature", "properties": { "Name": "Yigo Guam Temple", "Phone": "&nbsp; (+1) 671-969-0055" }, "geometry": { "type": "Point", "coordinates": [ 144.890143, 13.541741, 0.0 ] } },
{ "type": "Feature", "properties": { "Name": "Yorba Linda California Temple", "Phone": null }, "geometry": { "type": "Point", "coordinates": [ -117.834721, 33.8983749, 0.0 ] } },
{ "type": "Feature", "properties": { "Name": "Yuma Arizona Temple", "Phone": null }, "geometry": { "type": "Point", "coordinates": [ -114.494434, 32.6620548, 0.0 ] } }
]
}
